[
    {
        "Altitude(m)": 605459.0090727248,
        "Argument of Periapsis(deg)": 0.0,
        "Eccentricity": 0.0,
        "Inclination(deg)": 60.0,
        "Latitude(deg)": 27.988149955575864,
        "Longitude(deg)": -122.2013827266288,
        "Mean Anomaly(deg)": 32.72730000000001,
        "RAAN(deg)": 320.0,
        "Satellite Name": "Test1 1410",
        "Satellite Number": 1410,
        "Semi-Major Axis(m)": 6980739.136638005,
        "Time(s)": 0
    },
    {
        "Altitude(m)": 605535.799736577,
        "Argument of Periapsis(deg)": 0.00010418945913296404,
        "Eccentricity": 0.0,
        "Inclination(deg)": 60.0,
        "Latitude(deg)": 28.50127908713537,
        "Longitude(deg)": -121.84443715862619,
        "Mean Anomaly(deg)": 33.34740614546182,
        "RAAN(deg)": 319.9995799508602,
        "Satellite Name": "Test1 1410",
        "Satellite Number": 1410,
        "Semi-Major Axis(m)": 6980739.136638005,
        "Time(s)": 10
    }
]